NORAD_CAT_ID,OBJECT_NAME,OBJECT_TYPE,EPOCH,MEAN_MOTION,ECCENTRICITY,INCLINATION,RA_OF_ASC_NODE,ARG_OF_PERICENTER,MEAN_ANOMALY,BSTAR,MEAN_MOTION_DOT,MEAN_MOTION_DDOT,TLE_LINE0,TLE_LINE1,TLE_LINE2,SEMIMAJOR_AXIS,PERIOD,APOGEE,PERIGEE,DECAYED
49177.0,STARLINK-3103,PAYLOAD,2022-06-23 10:49:59,14.9671344,0.0003122,69.9961,70.8342,266.7868,93.2933,1.2418e-05,5e-07,0.0,0 STARLINK-3103,1 49177U 21082AZ  22174.45138733  .00000050  00000-0  12418-4 0  9996,2 49177  69.9961  70.8342 0003122 266.7868  93.2933 14.96713440 45170,6955.196,96.211,579.2330000000002,574.89,0.0
49177.0,STARLINK-3103,PAYLOAD,2022-06-23 20:27:25,14.96715951,0.0003131,69.9961,69.8256,266.9449,93.135,-4.998e-07,-9.7e-07,0.0,0 STARLINK-3103,1 49177U 21082AZ  22174.85237782 -.00000097  00000-0 -49980-6 0  9993,2 49177  69.9961  69.8256 0003131 266.9449  93.1350 14.96715951 45237,6955.189,96.211,579.231,574.876,0.0
49177.0,STARLINK-3103,PAYLOAD,2022-06-24 10:53:33,14.96723329,0.0003123,69.9962,68.3124,266.827,93.2531,4.6725e-05,4.43e-06,0.0,0 STARLINK-3103,1 49177U 21082AZ  22175.45385746  .00000443  00000-0  46725-4 0  9999,2 49177  69.9962  68.3124 0003123 266.8270  93.2531 14.96723329 45328,6955.166,96.21,579.203,574.859,0.0
49177.0,STARLINK-3103,PAYLOAD,2022-06-24 17:18:30,14.96716318,0.0002645,69.9968,67.6411,269.7437,90.3418,8.6042e-05,8.93e-06,0.0,0 STARLINK-3103,1 49177U 21082AZ  22175.72118936  .00000893  00000-0  86042-4 0  9999,2 49177  69.9968  67.6411 0002645 269.7437  90.3418 14.96716318 45366,6955.188,96.211,578.8919999999998,575.2130000000002,0.0
49177.0,STARLINK-3103,PAYLOAD,2022-06-24 20:30:59,14.96707174,0.0003118,69.9961,67.3037,265.6064,94.4738,-2.0727e-05,-3.29e-06,0.0,0 STARLINK-3103,1 49177U 21082AZ  22175.85486075 -.00000329  00000-0 -20727-4 0  9999,2 49177  69.9961  67.3037 0003118 265.6064  94.4738 14.96707174 45389,6955.215999999999,96.211,579.25,574.9119999999998,0.0
49177.0,STARLINK-3103,PAYLOAD,2022-06-25 02:55:57,14.96707423,0.0002982,69.9962,66.6315,265.1234,94.9584,-2.4822e-05,-3.76e-06,0.0,0 STARLINK-3103,1 49177U 21082AZ  22176.12219013 -.00000376  00000-0 -24822-4 0  9998,2 49177  69.9962  66.6315 0002982 265.1234  94.9584 14.96707423 45429,6955.215,96.211,579.154,575.006,0.0
49177.0,STARLINK-3103,PAYLOAD,2022-06-25 09:20:54,14.96709596,0.000304,69.9963,65.9591,265.2696,94.8115,-1.1535e-05,-2.24e-06,0.0,0 STARLINK-3103,1 49177U 21082AZ  22176.38951704 -.00000224  00000-0 -11535-4 0  9995,2 49177  69.9963  65.9591 0003040 265.2696  94.8115 14.96709596 45463,6955.208000000001,96.211,579.188,574.9590000000002,0.0
49177.0,STARLINK-3103,PAYLOAD,2022-06-25 20:34:34,14.96715071,0.0002926,69.99600000000001,64.7822,265.2327,94.8497,-4.4926e-05,-6.06e-06,0.0,0 STARLINK-3103,1 49177U 21082AZ  22176.85733930 -.00000606  00000-0 -44926-4 0  9990,2 49177  69.9960  64.7822 0002926 265.2327  94.8497 14.96715071 45533,6955.191,96.211,579.092,575.021,0.0
49177.0,STARLINK-3103,PAYLOAD,2022-06-26 09:24:27,14.96746753,0.0003002,69.9959,63.4373,269.8006,90.2808,-0.00042673,-4.976e-05,0.0,0 STARLINK-3103,1 49177U 21082AZ  22177.39198107 -.00004976  00000-0 -42673-3 0  9991,2 49177  69.9959  63.4373 0003002 269.8006  90.2808 14.96746753 45614,6955.093000000003,96.209,579.0459999999998,574.87,0.0
49177.0,STARLINK-3103,PAYLOAD,2022-06-26 20:38:07,14.96719725,0.0002921,69.9957,62.26,265.8192,94.2633,0.0001441999999999,1.559e-05,0.0,0 STARLINK-3103,1 49177U 21082AZ  22177.85980817  .00001559  00000-0  14420-3 0  9990,2 49177  69.9957  62.2600 0002921 265.8192  94.2633 14.96719725 45689,6955.177,96.21,579.0740000000002,575.01,0.0
49177.0,STARLINK-3103,PAYLOAD,2022-06-26 22:14:21,14.96720865,0.0002944,69.9956,62.0919,265.1974,94.8848,0.00015181,1.647e-05,0.0,0 STARLINK-3103,1 49177U 21082AZ  22177.92663893  .00001647  00000-0  15181-3 0  9993,2 49177  69.9956  62.0919 0002944 265.1974  94.8848 14.96720865 45697,6955.1730000000025,96.21,579.086,574.991,0.0
49177.0,STARLINK-3103,PAYLOAD,2022-06-27 01:26:50,14.96697213,0.0003245,69.9955,61.7558,263.5814,96.4975,0.00048064,5.411e-05,0.0,0 STARLINK-3103,1 49177U 21082AZ  22178.06030940  .00005411  00000-0  48064-3 0  9999,2 49177  69.9955  61.7558 0003245 263.5814  96.4975 14.96697213 45713,6955.246999999999,96.212,579.369,574.855,0.0
49177.0,STARLINK-3103,PAYLOAD,2022-06-27 09:28:02,14.96692675,0.0003007,69.9953,60.9151,263.4655,96.6161,0.00029694,3.307e-05,0.0,0 STARLINK-3103,1 49177U 21082AZ  22178.39447827  .00003307  00000-0  29694-3 0  9991,2 49177  69.9953  60.9151 0003007 263.4655  96.6161 14.96692675 45760,6955.261,96.212,579.217,575.034,0.0
49177.0,STARLINK-3103,PAYLOAD,2022-06-27 19:05:28,14.96713598,0.0002896,69.9953,59.9058,265.0064,95.0764,-1.4224e-06,-1.08e-06,0.0,0 STARLINK-3103,1 49177U 21082AZ  22178.79546381 -.00000108  00000-0 -14224-5 0  9993,2 49177  69.9953  59.9058 0002896 265.0064  95.0764 14.96713598 45828,6955.196,96.211,579.075,575.047,0.0
49177.0,STARLINK-3103,PAYLOAD,2022-06-27 20:41:42,14.96713265,0.0002925,69.9956,59.7383,264.2396,95.8429,-4.2879e-06,-1.41e-06,0.0,0 STARLINK-3103,1 49177U 21082AZ  22178.86229603 -.00000141  00000-0 -42879-5 0  9990,2 49177  69.9956  59.7383 0002925 264.2396  95.8429 14.96713265 45830,6955.196999999999,96.211,579.096,575.028,0.0
49177.0,STARLINK-3103,PAYLOAD,2022-06-28 09:31:36,14.96720162,0.0002963,69.9955,58.3932,264.4093,95.6727,-2.3631e-05,-3.62e-06,0.0,0 STARLINK-3103,1 49177U 21082AZ  22179.39694705 -.00000362  00000-0 -23631-4 0  9997,2 49177  69.9955  58.3932 0002963 264.4093  95.6727 14.96720162 45914,6955.176,96.21,579.101,574.98,0.0
49177.0,STARLINK-3103,PAYLOAD,2022-06-28 20:45:16,14.96721627,0.0002909,69.9958,57.2165,264.7029,95.3797,-3.7266e-05,-5.18e-06,0.0,0 STARLINK-3103,1 49177U 21082AZ  22179.86476886 -.00000518  00000-0 -37266-4 0  9999,2 49177  69.9958  57.2165 0002909 264.7029  95.3797 14.96721627 45983,6955.170999999999,96.21,579.059,575.013,0.0
49177.0,STARLINK-3103,PAYLOAD,2022-06-29 01:33:59,14.96711947,0.0002713,69.9956,56.7113,266.5375,93.5473,-0.00014986,-1.806e-05,0.0,0 STARLINK-3103,1 49177U 21082AZ  22180.06527420 -.00001806  00000-0 -14986-3 0  9998,2 49177  69.9956  56.7113 0002713 266.5375  93.5473 14.96711947 46015,6955.201,96.211,578.953,575.179,0.0
49177.0,STARLINK-3103,PAYLOAD,2022-06-29 09:35:11,14.96702083,0.0002734,69.9957,55.8718,263.9884,96.0962,-5.5819e-05,-7.299999999999999e-06,0.0,0 STARLINK-3103,1 49177U 21082AZ  22180.39943941 -.00000730  00000-0 -55819-4 0  9990,2 49177  69.9957  55.8718 0002734 263.9884  96.0962 14.96702083 46063,6955.232,96.212,578.998,575.195,0.0
49177.0,STARLINK-3103,PAYLOAD,2022-06-29 22:25:06,14.96704837,0.0002843,69.9957,54.5266,263.9866,96.0969,-7.422e-05,-9.41e-06,0.0,0 STARLINK-3103,1 49177U 21082AZ  22180.93409738 -.00000941  00000-0 -74220-4 0  9992,2 49177  69.9957  54.5266 0002843 263.9866  96.0969 14.96704837 46143,6955.223000000001,96.211,579.065,575.111,0.0
49177.0,STARLINK-3103,PAYLOAD,2022-06-30 01:37:34,14.96705398,0.0002813,69.9958,54.1902,264.0507,96.0331,-6.4181e-05,-8.26e-06,0.0,0 STARLINK-3103,1 49177U 21082AZ  22181.06776149 -.00000826  00000-0 -64181-4 0  9997,2 49177  69.9958  54.1902 0002813 264.0507  96.0331 14.96705398 46166,6955.221,96.211,579.043,575.13,0.0
49177.0,STARLINK-3103,PAYLOAD,2022-06-30 20:52:26,14.96708156,0.0002856999999999,69.9956,52.173,264.237,95.8463,-6.984399999999999e-05,-8.91e-06,0.0,0 STARLINK-3103,1 49177U 21082AZ  22181.86974804 -.00000891  00000-0 -69844-4 0  9996,2 49177  69.9956  52.1730 0002857 264.2370  95.8463 14.96708156 46280,6955.2130000000025,96.211,579.065,575.091,0.0
49177.0,STARLINK-3103,PAYLOAD,2022-07-01 04:53:37,14.96705625,0.0002741,69.9957,51.3323,264.5827,95.5018,2.5817e-05,2.04e-06,0.0,0 STARLINK-3103,1 49177U 21082AZ  22182.20390928  .00000204  00000-0  25817-4 0  9992,2 49177  69.9957  51.3323 0002741 264.5827  95.5018 14.96705625 46339,6955.221,96.211,578.992,575.179,0.0
49177.0,STARLINK-3103,PAYLOAD,2022-07-01 08:06:06,14.96703671,0.000276,69.9958,50.9962,264.1036,95.9808,8.6214e-05,8.95e-06,0.0,0 STARLINK-3103,1 49177U 21082AZ  22182.33757383  .00000895  00000-0  86214-4 0  9992,2 49177  69.9958  50.9962 0002760 264.1036  95.9808 14.96703671 46355,6955.227,96.211,579.011,575.172,0.0
49177.0,STARLINK-3103,PAYLOAD,2022-07-01 20:56:00,14.96706456,0.0002742,69.9958,49.6513,264.043,96.0416,7.4823e-05,7.65e-06,0.0,0 STARLINK-3103,1 49177U 21082AZ  22182.87223186  .00000765  00000-0  74823-4 0  9999,2 49177  69.9958  49.6513 0002742 264.0430  96.0416 14.96706456 46439,6955.218000000003,96.211,578.99,575.1759999999998,0.0
49177.0,STARLINK-3103,PAYLOAD,2022-07-02 08:09:40,14.96709347,0.0002734,69.9958,48.4745,263.6733,96.4114,7.471600000000001e-05,7.64e-06,0.0,0 STARLINK-3103,1 49177U 21082AZ  22183.34005603  .00000764  00000-0  74716-4 0  9994,2 49177  69.9958  48.4745 0002734 263.6733  96.4114 14.96709347 46504,6955.209,96.211,578.976,575.173,0.0
49177.0,STARLINK-3103,PAYLOAD,2022-07-02 16:10:52,14.96711779,0.0002735,69.9957,47.6339,263.3275,96.7572,6.0708e-05,6.03e-06,0.0,0 STARLINK-3103,1 49177U 21082AZ  22183.67421579  .00000603  00000-0  60708-4 0  9992,2 49177  69.9957  47.6339 0002735 263.3275  96.7572 14.96711779 46550,6955.2019999999975,96.211,578.969,575.164,0.0
49177.0,STARLINK-3103,PAYLOAD,2022-07-03 00:12:03,14.96704743,0.000267,69.9968,46.7934,261.6973,98.3882,0.0002732,3.036e-05,0.0,0 STARLINK-3103,1 49177U 21082AZ  22184.00837539  .00003036  00000-0  27320-3 0  9992,2 49177  69.9968  46.7934 0002670 261.6973  98.3882 14.96704743 46608,6955.223000000001,96.211,578.945,575.231,0.0
49177.0,STARLINK-3103,PAYLOAD,2022-07-03 21:03:08,14.96720948,0.0002654,69.9977,44.6081,260.2337,99.8522,0.00010768,1.141e-05,0.0,0 STARLINK-3103,1 49177U 21082AZ  22184.87718307  .00001141  00000-0  10768-3 0  9991,2 49177  69.9977  44.6081 0002654 260.2337  99.8522 14.96720948 46735,6955.1730000000025,96.21,578.884,575.192,0.0
